LEASAT 5                
1 20410U 90002B   15355.21536579  .00000027  00000-0  00000+0 0  9993
2 20410  11.5146  16.2730 0003490 276.5442  73.7785  0.99596963 80261
INTELSAT 701 (IS-701)   
1 22871U 93066A   15355.14900231 -.00000221  00000-0  00000+0 0  9998
2 22871   3.1589  70.0046 0004986 203.9280 199.5957  1.00270109 80942
INTELSAT 702 (IS-702)   
1 23124U 94034A   15354.07107964  .00000149  00000-0  00000+0 0  9997
2 23124   3.5012  68.2835 0002619 176.7949 261.7634  1.00270264 92954
INTELSAT 26 (IS-26)     
1 24732U 97007A   15354.76424404  .00000017  00000-0  00000+0 0  9997
2 24732   6.5862  54.2337 0004267 196.0066 176.0888  1.00273045 68866
GALAXY 25 (G-25)        
1 24812U 97026A   15355.01066030 -.00000166  00000-0  00000+0 0  9999
2 24812   0.0288 342.2711 0002864 287.9124  89.7836  1.00270647 67944
INTELSAT 5 (IS-5)       
1 24916U 97046A   15354.52107540 -.00000144  00000-0  00000+0 0  9999
2 24916   2.4802  73.8700 0004240 205.7761 153.7197  1.00271134 67198
INTELSAT 805 (IS-805)   
1 25371U 98037A   15354.28025692 -.00000288  00000-0  00000+0 0  9995
2 25371   0.0451  63.8096 0003444 214.8195 215.3213  1.00271002 64142
INTELSAT 7 (IS-7)       
1 25473U 98052A   15354.01708116 -.00000146  00000-0  00000+0 0  9998
2 25473   2.0762  76.8222 0004211 167.6169 191.8234  1.00271904 63226
AFRISTAR                
1 25515U 98063A   15355.18539863  .00000121  00000-0  00000+0 0  9999
2 25515   2.2471  70.9375 0004269 195.8087 270.4233  1.00270508 62716
INTELSAT 8 (IS-8)       
1 25522U 98065A   15353.76564005 -.00000033  00000-0  00000+0 0  9990
2 25522   0.0249  55.8442 0003325 207.8404 268.9612  1.00271961 62693
GALAXY 27 (G-27)        
1 25922U 99052A   15353.78050351 -.00000008  00000-0  00000-0 0  9990
2 25922   2.1445  75.8071 0006243 181.0020 178.4540  1.00269711 13294
GALAXY 11 (G-11)        
1 26038U 99071A   15355.33450588 -.00000250  00000-0  00000+0 0  9997
2 26038   0.0334 202.4680 0002163 152.3336 173.8191  1.00485829 58693
SIRIUS-1                
1 26390U 00035A   15351.96199324  .00000049  00000-0  00000-0 0  9999
2 26390  59.7145 234.5443 2606544 267.9934 195.7991  1.00272146 13272
INTELSAT 9 (IS-9)       
1 26451U 00043A   15355.38985942 -.00000276  00000-0  00000+0 0  9997
2 26451   2.4673  74.0999 0003252 190.5380 282.2630  1.00270661 56432
SIRIUS-2                
1 26483U 00051A   15353.49104078  .00000034  00000-0  00000+0 0  9995
2 26483  64.4596 114.5792 2772738 267.3851 149.6309  1.00275419 56008
INTELSAT 12 (IS-12)     
1 26590U 00068A   15355.18507834  .00000133  00000-0  00000+0 0  9997
2 26590   0.0320 282.2361 0003730 342.4154 296.4115  1.00271151 55386
INTELSAT 1R (IS-1R)     
1 26608U 00072A   15354.20967042 -.00000285  00000-0  00000+0 0  9994
2 26608   0.0493 199.6283 0003196 147.5081 126.7988  1.00270829 55238
SIRIUS-3                
1 26626U 00077A   15351.92303904 -.00000103  00000-0  00000-0 0  9996
2 26626  64.4454 354.4023 2669609 268.9971  60.6069  1.00272510 55108
XM-1 (ROLL)             
1 26761U 01018A   15355.19720455 -.00000260  00000-0  00000+0 0  9992
2 26761   0.0283  63.7935 0001162  82.1463 335.4816  1.00273935 53619
INTELSAT 10 (IS-10)     
1 26766U 01019A   15355.06877547  .00000122  00000-0  00000+0 0  9995
2 26766   0.3904  87.1749 0002604 177.4586 256.9631  1.00273695 53510
INTELSAT 901 (IS-901)   
1 26824U 01024A   15352.79678501 -.00000142  00000-0  00000+0 0  9995
2 26824   0.0257 315.8126 0002866 307.3998  92.7086  1.00271005 53168
INTELSAT 902 (IS-902)   
1 26900U 01039A   15353.86114481  .00000030  00000-0  00000+0 0  9992
2 26900   0.0229 299.7724 0002762 330.6530 189.7208  1.00273386 52348
DIRECTV 4S              
1 26985U 01052A   15355.46513920 -.00000118  00000-0  00000+0 0  9997
2 26985   0.0182   7.8906 0002533 261.5678 246.5139  1.00270797 51583
INTELSAT 904 (IS-904)   
1 27380U 02007A   15355.12599703  .00000045  00000-0  00000+0 0  9992
2 27380   0.0137 342.5812 0003518 287.5594 284.5944  1.00272003 50685
INTELSAT 903 (IS-903)   
1 27403U 02016A   15355.15177081 -.00000242  00000-0  00000+0 0  9992
2 27403   0.0381  44.7369 0003487 242.1983 182.6351  1.00267667 50235
DIRECTV 5 (TEMPO 1)     
1 27426U 02023A   15354.06047133 -.00000058  00000-0  00000+0 0  9993
2 27426   0.0247 296.2497 0003224 337.7632  85.9574  1.00270412 49881
INTELSAT 905 (IS-905)   
1 27438U 02027A   15355.13973831 -.00000188  00000-0  00000+0 0  9996
2 27438   0.0217 306.4105 0002381 291.0375 237.7702  1.00272140 49543
GALAXY 3C (G-3C)        
1 27445U 02030A   15353.02158436 -.00000152  00000-0  00000+0 0  9991
2 27445   0.0110 352.1157 0003491  11.3270 356.5692  1.00273106 49527
INTELSAT 906 (IS-906)   
1 27513U 02041A   15355.12381122  .00000010  00000-0  00000+0 0  9994
2 27513   0.0276 298.3596 0003110 331.9807 287.7594  1.00273000 48550
INTELSAT 907 (IS-907)   
1 27683U 03007A   15354.82896526 -.00000206  00000-0  00000+0 0  9998
2 27683   0.0261  34.7104 0003035 233.9727  91.2821  1.00270470 46970
GALAXY 12 (G-12)        
1 27715U 03013B   15355.41247109  .00000055  00000-0  00000+0 0  9995
2 27715   0.0449 180.9916 0002440  75.3963 212.7466  1.00271396 46599
GALAXY 23 (G-23)        
1 27854U 03034A   15354.64330495  .00000010  00000-0  00000+0 0  9998
2 27854   0.0275  35.7871 0003482 249.4927 274.1972  1.00273579 45204
GALAXY 13 (HORIZONS-1)  
1 27954U 03044A   15355.04054603  .00000044  00000-0  00000+0 0  9996
2 27954   0.0324  50.2908 0002348 219.5205  67.0260  1.00272315 44744
DIRECTV 7S              
1 28238U 04016A   15355.46483669 -.00000003  00000-0  00000+0 0  9992
2 28238   0.0260 332.6907 0003412 299.1387 226.1574  1.00272175 42662
INTELSAT 10-02          
1 28358U 04022A   15353.22667084 -.00000013  00000-0  00000+0 0  9990
2 28358   0.0110  22.4938 0001665 191.4440 314.1900  1.00268609 42195
XM-3 (RHYTHM)           
1 28626U 05008A   15355.48623811 -.00000210  00000-0  00000+0 0  9992
2 28626   0.0196 178.0857 0000601  30.6921 330.8879  1.00272615 39651
SPACEWAY 1              
1 28644U 05015A   15355.52329924 -.00000107  00000-0  00000+0 0  9998
2 28644   0.0499 181.2243 0000370  10.0528 343.9585  1.00270712 39105
DIRECTV 8               
1 28659U 05019A   15355.03211074 -.00000119  00000-0  00000+0 0  9993
2 28659   0.0358 332.4730 0002290 305.1910  82.3100  1.00273747 38772
GALAXY 28 (G-28)        
1 28702U 05022A   15355.28053220 -.00000189  00000-0  00000+0 0  9997
2 28702   0.0224  10.0379 0000697 156.0127 295.4297  1.00270268 38413
GALAXY 14 (G-14)        
1 28790U 05030A   15355.46017818  .00000033  00000-0  00000+0 0  9993
2 28790   0.0244 318.6181 0002436 308.1460 223.6030  1.00269202 37898
GALAXY 15 (G-15)        
1 28884U 05041A   15355.35478659  .00000074  00000-0  00000+0 0  9996
2 28884   0.0121 355.7042 0002190 297.1680 151.4712  1.00273233 37201
SPACEWAY 2              
1 28903U 05046B   15355.28315124 -.00000131  00000-0  00000+0 0  9997
2 28903   0.0435 173.1235 0000319  38.3558 240.9240  1.00272089 37081
GALAXY 16 (G-16)        
1 29236U 06023A   15354.45969870 -.00000130  00000-0  00000+0 0  9993
2 29236   0.0248 245.7462 0002822  17.9379 251.5380  1.00270901 34841
DIRECTV 9S              
1 29494U 06043A   15355.46513920 -.00000118  00000-0  00000+0 0  9990
2 29494   0.0197   2.8435 0003719 265.0595 248.1590  1.00269882 33697
XM-4 (BLUES)            
1 29520U 06049A   15355.06615586 -.00000027  00000-0  00000+0 0  9992
2 29520   0.0235 169.2628 0000354 100.1139  88.5362  1.00271894 33573
GALAXY 17 (G-17)        
1 31307U 07016B   15355.53110510 -.00000179  00000-0  00000+0 0  9990
2 31307   0.0201 348.0899 0003061 297.6938 264.1852  1.00271667 31668
DIRECTV 10              
1 31862U 07032A   15355.03380069 -.00000106  00000-0  00000+0 0  9997
2 31862   0.0430 185.7202 0000491  32.4850 140.3947  1.00270096 30983
SPACEWAY 3              
1 32018U 07036A   15355.28269045 -.00000156  00000-0  00000+0 0  9997
2 32018   0.0188 122.7788 0000313 141.0184 192.5609  1.00271260 30716
INTELSAT 11 (IS-11)     
1 32253U 07044B   15355.38985942 -.00000273  00000-0  00000+0 0  9999
2 32253   0.0324 262.4632 0003205   2.7966 281.7285  1.00271837 30118
HORIZONS-2              
1 32388U 07063B   15354.67438671 -.00000186  00000-0  00000+0 0  9995
2 32388   0.0090 347.5314 0003102 278.3966 150.6340  1.00271700 29467
DIRECTV 11              
1 32729U 08013A   15354.45969870 -.00000130  00000-0  00000+0 0  9995
2 32729   0.0132 230.7072 0000542 343.8933 300.4338  1.00276428 28513
GALAXY 18 (G-18)        
1 32951U 08024A   15354.09599000  .00000022  00000-0  00000+0 0  9997
2 32951   0.0268 320.1853 0002827 308.9868  90.7955  1.00270877 27669
INTELSAT 25 (IS-25)     
1 33153U 08034A   15355.14961487 -.00000228  00000-0  00000+0 0  9991
2 33153   0.0230 310.7287 0002537 296.2469 224.8005  1.00272306 27220
GALAXY 19 (G-19)        
1 33376U 08045A   15355.22490485 -.00000143  00000-0  00000+0 0  9990
2 33376   0.0284 287.8215 0002887 342.1068 163.5103  1.00271770 26417
SIRIUS FM-5             
1 35493U 09034A   15355.28269045 -.00000149  00000-0  00000+0 0  9999
2 35493   0.0278 303.4246 0000265 155.7328 356.1433  1.00272097 23568
INTELSAT 14 (IS-14)     
1 36097U 09064A   15354.87757633 -.00000278  00000-0  00000+0 0  9995
2 36097   0.0266  28.6515 0002592 252.0859  79.2335  1.00269377 22296
INTELSAT 15 (IS-15)     
1 36106U 09067A   15353.84446970 -.00000188  00000-0  00000-0 0  9995
2 36106   0.0244 309.7612 0003185 329.6696 197.8477  1.00271586  2885
DIRECTV 12              
1 36131U 09075A   15355.52329924 -.00000108  00000-0  00000+0 0  9999
2 36131   0.0492 178.7423 0000715  70.8125 285.8028  1.00274576 21973
INTELSAT 16 (IS-16)     
1 36397U 10006A   15354.25641649 -.00000248  00000-0  00000+0 0  9994
2 36397   0.0236  81.2644 0001705 186.2672 197.1063  1.00272332 21315
XM-5                    
1 37185U 10053A   15355.48623964 -.00000210  00000-0  00000+0 0  9997
2 37185   0.0182 313.5105 0000735 253.5592 332.5051  1.00273385 19032
INTELSAT 17 (IS-17)     
1 37238U 10065B   15354.83411340 -.00000005  00000-0  00000+0 0  9992
2 37238   0.0160 307.3286 0002893 321.3864 186.6549  1.00272062 18503
INTELSAT NEW DAWN       
1 37392U 11016A   15352.15175652  .00000156  00000-0  00000+0 0  9992
2 37392   0.0167 308.9469 0000958 284.0335 300.9217  1.00271141 17092
INTELSAT 18 (IS-18)     
1 37834U 11056A   15355.18848008  .00000049  00000-0  00000+0 0  9996
2 37834   0.0351  48.6146 0002503 244.5511  44.1004  1.00273659 15436
INTELSAT 22 (IS-22)     
1 38098U 12011A   15354.55299366 -.00000063  00000-0  00000+0 0  9995
2 38098   0.0213 346.5221 0001584 268.7084 104.7581  1.00276453 13639
INTELSAT 19 (IS-19)     
1 38356U 12030A   15355.29007567 -.00000060  00000-0  00000+0 0  9992
2 38356   0.0171 346.6985 0002904 282.3768  90.8956  1.00273279 13101
INTELSAT 20 (IS-20)     
1 38740U 12043A   15354.56291176 -.00000028  00000-0  00000+0 0  9997
2 38740   0.0224 358.1051 0001196 182.5414 179.3534  1.00269656 12412
INTELSAT 21 (IS-21)     
1 38749U 12045A   15352.09888509 -.00000285  00000-0  00000+0 0  9991
2 38749   0.0231  28.4087 0002276 222.5088 173.0810  1.00269967 12195
INTELSAT 23 (IS-23)     
1 38867U 12057A   15354.28688150 -.00000288  00000-0  00000+0 0  9991
2 38867   0.0016 353.6321 0002275 255.9495 249.2575  1.00272311 11697
SIRIUS FM-6             
1 39360U 13058A   15354.07712302 -.00000020  00000-0  00000+0 0  9990
2 39360   0.0329  15.0233 0000434 159.2224 185.7547  1.00269810  7929
INTELSAT 30 (IS-30)     
1 40271U 14062A   15354.34473078 -.00000154  00000-0  00000+0 0  9991
2 40271   0.0220  94.5035 0000972  72.4698 310.6782  1.00271777  4340
